NORAD_CAT_ID,OBJECT_NAME,OBJECT_TYPE,EPOCH,MEAN_MOTION,ECCENTRICITY,INCLINATION,RA_OF_ASC_NODE,ARG_OF_PERICENTER,MEAN_ANOMALY,BSTAR,MEAN_MOTION_DOT,MEAN_MOTION_DDOT,TLE_LINE0,TLE_LINE1,TLE_LINE2,SEMIMAJOR_AXIS,PERIOD,APOGEE,PERIGEE,DECAYED
51109.0,STARLINK-3358,PAYLOAD,2022-02-02 16:00:00,15.84664165,0.0001155,53.2178,201.6948,61.9687,332.8748,-0.002941,-0.00645701,0.0,0 STARLINK-3358,1 51109U 22005F   22033.66667824 -.00645701  00000-0 -29410-2 0  9993,2 51109  53.2178 201.6948 0001155  61.9687 332.8748 15.84664165  2770,6695.408,90.871,318.046,316.499,0.0
51109.0,STARLINK-3358,PAYLOAD,2022-02-06 19:57:23,15.78454646,0.0001629,53.2174,180.8414,45.5589,314.5567,-0.0016442999999999,-0.00281992,0.0,0 STARLINK-3358,1 51109U 22005F   22037.83152177 -.00281992  00000-0 -16443-2 0  9996,2 51109  53.2174 180.8414 0001629  45.5589 314.5567 15.78454646  4285,6712.956,91.228,335.914,333.727,0.0
51109.0,STARLINK-3358,PAYLOAD,2022-02-07 14:11:40,15.77652658,0.0003505,53.2171,177.0524,169.1438,190.9661,-0.002723,-0.00442086,0.0,0 STARLINK-3358,1 51109U 22005F   22038.59144232 -.00442086  00000-0 -27230-2 0  9992,2 51109  53.2171 177.0524 0003505 169.1438 190.9661 15.77652658  4400,6715.23,91.275,339.449,334.742,0.0
51109.0,STARLINK-3358,PAYLOAD,2022-02-07 15:42:55,15.77591169,0.0001216,53.217,176.7368,317.0693,43.0234,-0.0023265,-0.00379229,0.0,0 STARLINK-3358,1 51109U 22005F   22038.65480635 -.00379229  00000-0 -23265-2 0  9991,2 51109  53.2170 176.7368 0001216 317.0693  43.0234 15.77591169  3070,6715.405,91.278,338.086,336.4530000000001,0.0
51109.0,STARLINK-3358,PAYLOAD,2022-02-09 17:57:49,15.74818626,0.0007866,53.2165,166.3446,10.3246,349.7935,-0.00032456,-0.0004931,0.0,0 STARLINK-3358,1 51109U 22005F   22040.74849151 -.00049310  00000-0 -32456-3 0  9994,2 51109  53.2165 166.3446 0007866  10.3246 349.7935 15.74818626  4746,6723.284000000002,91.439,350.43800000000016,339.861,0.0
51109.0,STARLINK-3358,PAYLOAD,2022-02-09 21:01:01,15.73868702,0.000227,53.2165,165.7172,15.9473,344.1619,-0.002844,-0.00392926,0.0,0 STARLINK-3358,1 51109U 22005F   22040.87571757 -.00392926  00000-0 -28440-2 0  9993,2 51109  53.2165 165.7172 0002270  15.9473 344.1619 15.73868702  4761,6725.989000000001,91.494,349.381,346.32800000000015,0.0
51109.0,STARLINK-3358,PAYLOAD,2022-02-10 12:15:46,15.73365762,0.0001575,53.2162,162.5735,354.7919,5.3085,-0.001191,-0.00165698,0.0,0 STARLINK-3358,1 51109U 22005F   22041.51095955 -.00165698  00000-0 -11910-2 0  9994,2 51109  53.2162 162.5735 0001575 354.7919   5.3085 15.73365762  4866,6727.4230000000025,91.524,350.347,348.228,0.0
51109.0,STARLINK-3358,PAYLOAD,2022-02-10 13:47:16,15.73334709,0.0001822,53.2154,162.2605,354.491,5.609,-0.0010043,-0.00140061,0.0,0 STARLINK-3358,1 51109U 22005F   22041.57449171 -.00140061  00000-0 -10043-2 0  9996,2 51109  53.2154 162.2605 0001822 354.4910   5.6090 15.73334709  3532,6727.511,91.525,350.602,348.15,0.0
51109.0,STARLINK-3358,PAYLOAD,2022-02-10 21:24:39,15.73298848,0.0001759,53.2168,160.6852,339.351,20.7439,-0.00016066,-0.00023203,0.0,0 STARLINK-3358,1 51109U 22005F   22041.89212707 -.00023203  00000-0 -16066-3 0  9994,2 51109  53.2168 160.6852 0001759 339.3510  20.7439 15.73298848  3583,6727.613,91.527,350.662,348.295,0.0
51109.0,STARLINK-3358,PAYLOAD,2022-02-10 22:56:08,15.73296051,0.0001701,53.2168,160.3711,340.8598,19.2358,-2.4571e-05,-4.082e-05,0.0,0 STARLINK-3358,1 51109U 22005F   22041.95565458 -.00004082  00000-0 -24571-4 0  9990,2 51109  53.2168 160.3711 0001701 340.8598  19.2358 15.73296051  4931,6727.621,91.528,350.631,348.342,0.0
51109.0,STARLINK-3358,PAYLOAD,2022-02-11 14:10:54,15.73336193,0.0002275,53.2169,157.2288,339.4622,20.6307,0.00035381,0.00049622,0.0,0 STARLINK-3358,1 51109U 22005F   22042.59090484  .00049622  00000-0  35381-3 0  9990,2 51109  53.2169 157.2288 0002275 339.4622  20.6307 15.73336193  3699,6727.507,91.525,350.902,347.841,0.0
51109.0,STARLINK-3358,PAYLOAD,2022-02-11 17:13:51,15.73334614,0.0003326,53.2168,156.6037,347.9532,12.1408,0.00026562,0.00037044,0.0,0 STARLINK-3358,1 51109U 22005F   22042.71795402  .00037044  00000-0  26562-3 0  9992,2 51109  53.2168 156.6037 0003326 347.9532  12.1408 15.73334614  5051,6727.511,91.525,351.61400000000015,347.139,0.0
51109.0,STARLINK-3358,PAYLOAD,2022-02-12 13:03:06,15.73199442,0.0002113,53.2162,152.5147,12.1654,347.9416,0.00021464,0.0002961,0.0,0 STARLINK-3358,1 51109U 22005F   22043.54382226  .00029610  00000-0  21464-3 0  9996,2 51109  53.2162 152.5147 0002113  12.1654 347.9416 15.73199442  5181,6727.897,91.533,351.18300000000005,348.34,0.0
51109.0,STARLINK-3358,PAYLOAD,2022-02-12 14:34:35,15.73198439,0.0001908,53.2161,152.1988,19.3771,340.7322,0.00048559,0.00068081,0.0,0 STARLINK-3358,1 51109U 22005F   22043.60735205  .00068081  00000-0  48559-3 0  9991,2 51109  53.2161 152.1988 0001908  19.3771 340.7322 15.73198439  3853,6727.9,91.533,351.048,348.481,0.0
51109.0,STARLINK-3358,PAYLOAD,2022-02-13 04:00:01,15.73096025,0.0002062,53.2159,149.4315,23.9145,265.7606,0.00034686,0.00048124,0.0,0 STARLINK-3358,1 51109U 22005F   22044.16668981  .00048124  00000-0  34686-3 0  9991,2 51109  53.2159 149.4315 0002062  23.9145 265.7606 15.73096025  5289,6728.191999999999,91.539,351.444,348.6690000000001,0.0
51109.0,STARLINK-3358,PAYLOAD,2022-02-13 14:00:01,15.731029800000002,0.0002323,53.2164,147.372,20.6789,109.9861,0.00032371,0.00044868,0.0,0 STARLINK-3358,1 51109U 22005F   22044.58334491  .00044868  00000-0  32371-3 0  9993,2 51109  53.2164 147.3720 0002323  20.6789 109.9861 15.73102980  3738,6728.172,91.539,351.6,348.474,0.0
51109.0,STARLINK-3358,PAYLOAD,2022-02-14 06:00:00,15.73187779,0.0002231,53.2167,144.0715,21.7652,286.6227,0.00061203,0.00086119,0.0,0 STARLINK-3358,1 51109U 22005F   22045.25001157  .00086119  00000-0  61203-3 0  9999,2 51109  53.2167 144.0715 0002231  21.7652 286.6227 15.73187779  5457,6727.93,91.534,351.296,348.2940000000001,0.0
51109.0,STARLINK-3358,PAYLOAD,2022-02-14 12:00:02,15.73261898,0.0002418,53.2164,142.8361,18.9421,266.2154,-0.00040511,-0.0005725,0.0,0 STARLINK-3358,1 51109U 22005F   22045.50002315 -.00057250  00000-0 -40511-3 0  9999,2 51109  53.2164 142.8361 0002418  18.9421 266.2154 15.73261898  5498,6727.719,91.53,351.21,347.957,0.0
51109.0,STARLINK-3358,PAYLOAD,2022-02-14 14:00:01,15.73241729,0.0002462,53.2165,142.4242,18.0782,19.2651,-0.00016839,-0.00024232,0.0,0 STARLINK-3358,1 51109U 22005F   22045.58334491 -.00024232  00000-0 -16839-3 0  9990,2 51109  53.2165 142.4242 0002462  18.0782  19.2651 15.73241729  3748,6727.776,91.531,351.298,347.985,0.0
51109.0,STARLINK-3358,PAYLOAD,2022-02-14 20:00:01,15.73219624,0.0002486,53.2159,141.1869,14.1791,359.8715,0.00027008,0.00037488,0.0,0 STARLINK-3358,1 51109U 22005F   22045.83334491  .00037488  00000-0  27008-3 0  9993,2 51109  53.2159 141.1869 0002486  14.1791 359.8715 15.73219624  3715,6727.839,91.532,351.37699999999984,348.032,0.0
51109.0,STARLINK-3358,PAYLOAD,2022-02-15 06:00:00,15.73218931,0.0002189,53.2165,139.1232,15.3741,199.8872,0.00010855,0.00014653,0.0,0 STARLINK-3358,1 51109U 22005F   22046.25001157  .00014653  00000-0  10855-3 0  9991,2 51109  53.2165 139.1232 0002189  15.3741 199.8872 15.73218931  5618,6727.840999999999,91.532,351.17900000000014,348.233,0.0
51109.0,STARLINK-3358,PAYLOAD,2022-02-15 14:00:01,15.73186624,0.0002573,53.2166,137.4759,16.5069,287.7166,0.00015281,0.00020868,0.0,0 STARLINK-3358,1 51109U 22005F   22046.58334491  .00020868  00000-0  15281-3 0  9990,2 51109  53.2166 137.4759 0002573  16.5069 287.7166 15.73186624  3699,6727.933000000001,91.534,351.529,348.06699999999995,0.0
51109.0,STARLINK-3358,PAYLOAD,2022-02-15 22:00:01,15.73246876,0.0002537,53.2166,135.8254,14.6416,18.5591,-0.00036328,-0.00051406,0.0,0 STARLINK-3358,1 51109U 22005F   22046.91668981 -.00051406  00000-0 -36328-3 0  9990,2 51109  53.2166 135.8254 0002537  14.6416  18.5591 15.73246876  5719,6727.762,91.53,351.333,347.92,0.0
51109.0,STARLINK-3358,PAYLOAD,2022-02-16 14:00:01,15.73233519,0.000277,53.2164,132.5277,16.3391,194.6982,-3.6285e-05,-5.720000000000002e-05,0.0,0 STARLINK-3358,1 51109U 22005F   22047.58334491 -.00005720  00000-0 -36285-4 0  9991,2 51109  53.2164 132.5277 0002770  16.3391 194.6982 15.73233519  5828,6727.8,91.531,351.528,347.801,0.0
51109.0,STARLINK-3358,PAYLOAD,2022-02-16 22:00:00,15.73283895,0.0002471,53.2161,130.8731,15.517,284.5167,-0.00064905,-0.00091073,0.0,0 STARLINK-3358,1 51109U 22005F   22047.91667824 -.00091073  00000-0 -64905-3 0  9992,2 51109  53.2161 130.8731 0002471  15.5170 284.5167 15.73283895  3694,6727.656,91.528,351.18300000000005,347.8590000000001,0.0
51109.0,STARLINK-3358,PAYLOAD,2022-02-17 06:00:00,15.73255748,0.0002404,53.2161,129.2266,17.2176,11.8008,-0.00027328,-0.00038895,0.0,0 STARLINK-3358,1 51109U 22005F   22048.25001157 -.00038895  00000-0 -27328-3 0  9992,2 51109  53.2161 129.2266 0002404  17.2176  11.8008 15.73255748  5929,6727.736,91.53,351.219,347.9840000000001,0.0
51109.0,STARLINK-3358,PAYLOAD,2022-02-17 14:00:01,15.7320818,0.0002727,53.2161,127.5791,16.9231,101.0758,-0.0001634,-0.00023503,0.0,0 STARLINK-3358,1 51109U 22005F   22048.58334491 -.00023503  00000-0 -16340-3 0  9990,2 51109  53.2161 127.5791 0002727  16.9231 101.0758 15.73208180  3693,6727.871999999999,91.533,351.57199999999995,347.902,0.0
51109.0,STARLINK-3358,PAYLOAD,2022-02-17 22:00:00,15.72682491,0.0002833,53.2173,125.9162,17.2223,189.7611,0.0053293,0.00805592,0.0,0 STARLINK-3358,1 51109U 22005F   22048.91667824  .00805592  00000-0  53293-2 0  9997,2 51109  53.2173 125.9162 0002833  17.2223 189.7611 15.72682491  6035,6729.371,91.563,353.142,349.33,0.0
51109.0,STARLINK-3358,PAYLOAD,2022-02-18 06:00:00,15.73206601,0.0002677,53.2178,124.2626,24.6437,270.9657,-2.1669e-05,-3.664e-05,0.0,0 STARLINK-3358,1 51109U 22005F   22049.25001157 -.00003664  00000-0 -21669-4 0  9992,2 51109  53.2178 124.2626 0002677  24.6437 270.9657 15.73206601  6086,6727.876,91.533,351.542,347.94,0.0
